{
  "updatedAt": "2026-03-20T16:26:01.420Z",
  "entries": {
    "kitsat-b-22828": {
      "fetchedAt": "2026-03-20T16:26:01.420Z",
      "fleetEntry": {
        "id": "kitsat-b-22828",
        "name": "KITSAT B",
        "englishName": "KITSAT B",
        "domesticName": "KITSAT B",
        "color": "#f6bd60",
        "norad": "22828",
        "orbitClass": "leo",
        "orbitLabel": "LEO SSO",
        "missionType": "technology",
        "missionLabel": "기술실증/학술",
        "operationalStatus": "비현역",
        "objectId": "1993-061F",
        "launchDate": "1993-09-26",
        "sourceDate": "2026-03-20",
        "sourceLabel": "Space-Track cached GP",
        "omm": {
          "CCSDS_OMM_VERS": "3.0",
          "COMMENT": "GENERATED VIA SPACE-TRACK.ORG API",
          "CREATION_DATE": "2026-03-20T14:36:41",
          "ORIGINATOR": "18 SPCS",
          "OBJECT_NAME": "KITSAT B",
          "OBJECT_ID": "1993-061F",
          "CENTER_NAME": "EARTH",
          "REF_FRAME": "TEME",
          "TIME_SYSTEM": "UTC",
          "MEAN_ELEMENT_THEORY": "SGP4",
          "EPOCH": "2026-03-20T09:55:37.835904",
          "MEAN_MOTION": 14.31764806,
          "ECCENTRICITY": 0.0008869,
          "INCLINATION": 98.6936,
          "RA_OF_ASC_NODE": 146.6716,
          "ARG_OF_PERICENTER": 311.5565,
          "MEAN_ANOMALY": 48.4856,
          "EPHEMERIS_TYPE": 0,
          "CLASSIFICATION_TYPE": "U",
          "NORAD_CAT_ID": 22828,
          "ELEMENT_SET_NO": 999,
          "REV_AT_EPOCH": 66310,
          "BSTAR": 0.000061596,
          "MEAN_MOTION_DOT": 0.0000012,
          "MEAN_MOTION_DDOT": 0,
          "SEMIMAJOR_AXIS": "7163.975",
          "PERIOD": "100.575",
          "APOAPSIS": "792.194",
          "PERIAPSIS": "779.486",
          "OBJECT_TYPE": "PAYLOAD",
          "RCS_SIZE": "MEDIUM",
          "COUNTRY_CODE": "SKOR",
          "LAUNCH_DATE": "1993-09-26",
          "SITE": "FRGUI",
          "DECAY_DATE": null,
          "FILE": "5093553",
          "GP_ID": "316574841",
          "TLE_LINE0": "0 KITSAT B",
          "TLE_LINE1": "1 22828U 93061F   26079.41363236  .00000120  00000-0  61596-4 0  9997",
          "TLE_LINE2": "2 22828  98.6936 146.6716 0008869 311.5565  48.4856 14.31764806663104"
        }
      }
    },
    "koreasat-1-23639": {
      "fetchedAt": "2026-03-20T16:26:01.420Z",
      "fleetEntry": {
        "id": "koreasat-1-23639",
        "name": "KOREASAT 1",
        "englishName": "KOREASAT 1",
        "domesticName": "KOREASAT 1",
        "color": "#65d4a8",
        "norad": "23639",
        "orbitClass": "geo",
        "orbitLabel": "GEO",
        "missionType": "communications",
        "missionLabel": "상업 통신",
        "operationalStatus": "비현역",
        "objectId": "1995-041A",
        "launchDate": "1995-08-05",
        "sourceDate": "2026-03-20",
        "sourceLabel": "Space-Track cached GP",
        "omm": {
          "CCSDS_OMM_VERS": "3.0",
          "COMMENT": "GENERATED VIA SPACE-TRACK.ORG API",
          "CREATION_DATE": "2026-03-20T14:36:41",
          "ORIGINATOR": "18 SPCS",
          "OBJECT_NAME": "KOREASAT 1",
          "OBJECT_ID": "1995-041A",
          "CENTER_NAME": "EARTH",
          "REF_FRAME": "TEME",
          "TIME_SYSTEM": "UTC",
          "MEAN_ELEMENT_THEORY": "SGP4",
          "EPOCH": "2026-03-20T12:59:26.806272",
          "MEAN_MOTION": 0.99675086,
          "ECCENTRICITY": 0.0005119,
          "INCLINATION": 14.7076,
          "RA_OF_ASC_NODE": 359.2906,
          "ARG_OF_PERICENTER": 310.911,
          "MEAN_ANOMALY": 220.7519,
          "EPHEMERIS_TYPE": 0,
          "CLASSIFICATION_TYPE": "U",
          "NORAD_CAT_ID": 23639,
          "ELEMENT_SET_NO": 999,
          "REV_AT_EPOCH": 11164,
          "BSTAR": 0,
          "MEAN_MOTION_DOT": -0.00000251,
          "MEAN_MOTION_DDOT": 0,
          "SEMIMAJOR_AXIS": "42332.842",
          "PERIOD": "1444.694",
          "APOAPSIS": "35976.377",
          "PERIAPSIS": "35933.037",
          "OBJECT_TYPE": "PAYLOAD",
          "RCS_SIZE": "LARGE",
          "COUNTRY_CODE": "SKOR",
          "LAUNCH_DATE": "1995-08-05",
          "SITE": "AFETR",
          "DECAY_DATE": null,
          "FILE": "5093571",
          "GP_ID": "316575061",
          "TLE_LINE0": "0 KOREASAT 1",
          "TLE_LINE1": "1 23639U 95041A   26079.54128248 -.00000251  00000-0  00000+0 0  9998",
          "TLE_LINE2": "2 23639  14.7076 359.2906 0005119 310.9110 220.7519  0.99675086111644"
        }
      }
    },
    "abs-1a-koreasat-2-23768": {
      "fetchedAt": "2026-03-20T16:26:01.420Z",
      "fleetEntry": {
        "id": "abs-1a-koreasat-2-23768",
        "name": "ABS 1A (KOREASAT 2)",
        "englishName": "ABS 1A (KOREASAT 2)",
        "domesticName": "ABS 1A (KOREASAT 2)",
        "color": "#e98fb0",
        "norad": "23768",
        "orbitClass": "geo",
        "orbitLabel": "GEO",
        "missionType": "communications",
        "missionLabel": "상업 통신",
        "operationalStatus": "비현역",
        "objectId": "1996-003A",
        "launchDate": "1996-01-14",
        "sourceDate": "2026-03-20",
        "sourceLabel": "Space-Track cached GP",
        "omm": {
          "CCSDS_OMM_VERS": "3.0",
          "COMMENT": "GENERATED VIA SPACE-TRACK.ORG API",
          "CREATION_DATE": "2026-03-20T14:36:41",
          "ORIGINATOR": "18 SPCS",
          "OBJECT_NAME": "ABS 1A (KOREASAT 2)",
          "OBJECT_ID": "1996-003A",
          "CENTER_NAME": "EARTH",
          "REF_FRAME": "TEME",
          "TIME_SYSTEM": "UTC",
          "MEAN_ELEMENT_THEORY": "SGP4",
          "EPOCH": "2026-03-20T12:26:29.081760",
          "MEAN_MOTION": 0.99798755,
          "ECCENTRICITY": 0.000067,
          "INCLINATION": 12.4863,
          "RA_OF_ASC_NODE": 26.2073,
          "ARG_OF_PERICENTER": 300.9627,
          "MEAN_ANOMALY": 170.1535,
          "EPHEMERIS_TYPE": 0,
          "CLASSIFICATION_TYPE": "U",
          "NORAD_CAT_ID": 23768,
          "ELEMENT_SET_NO": 999,
          "REV_AT_EPOCH": 11029,
          "BSTAR": 0,
          "MEAN_MOTION_DOT": -0.00000349,
          "MEAN_MOTION_DDOT": 0,
          "SEMIMAJOR_AXIS": "42297.863",
          "PERIOD": "1442.904",
          "APOAPSIS": "35922.562",
          "PERIAPSIS": "35916.894",
          "OBJECT_TYPE": "PAYLOAD",
          "RCS_SIZE": "LARGE",
          "COUNTRY_CODE": "SKOR",
          "LAUNCH_DATE": "1996-01-14",
          "SITE": "AFETR",
          "DECAY_DATE": null,
          "FILE": "5093574",
          "GP_ID": "316575596",
          "TLE_LINE0": "0 ABS 1A (KOREASAT 2)",
          "TLE_LINE1": "1 23768U 96003A   26079.51839215 -.00000349  00000-0  00000+0 0  9998",
          "TLE_LINE2": "2 23768  12.4863  26.2073 0000670 300.9627 170.1535  0.99798755110296"
        }
      }
    },
    "link-42714": {
      "fetchedAt": "2026-03-20T13:09:35.883Z",
      "fleetEntry": {
        "id": "link-42714",
        "name": "LINK",
        "englishName": "LINK",
        "domesticName": "LINK",
        "color": "#8bd0ff",
        "norad": "42714",
        "orbitClass": "leo",
        "orbitLabel": "LEO",
        "missionType": "technology",
        "missionLabel": "기술실증/학술",
        "operationalStatus": "비현역",
        "objectId": "1998-067LV",
        "launchDate": "1998-11-20",
        "sourceDate": "2018-09-22",
        "sourceLabel": "Space-Track cached GP",
        "omm": {
          "CCSDS_OMM_VERS": "3.0",
          "COMMENT": "GENERATED VIA SPACE-TRACK.ORG API",
          "CREATION_DATE": "2018-09-23T16:57:20",
          "ORIGINATOR": "18 SPCS",
          "OBJECT_NAME": "LINK",
          "OBJECT_ID": "1998-067LV",
          "CENTER_NAME": "EARTH",
          "REF_FRAME": "TEME",
          "TIME_SYSTEM": "UTC",
          "MEAN_ELEMENT_THEORY": "SGP4",
          "EPOCH": "2018-09-22T22:04:49.697760",
          "MEAN_MOTION": 16.36256502,
          "ECCENTRICITY": 0.0007557,
          "INCLINATION": 51.6396,
          "RA_OF_ASC_NODE": 192.6696,
          "ARG_OF_PERICENTER": 179.7176,
          "MEAN_ANOMALY": 180.2695,
          "EPHEMERIS_TYPE": 0,
          "CLASSIFICATION_TYPE": "U",
          "NORAD_CAT_ID": 42714,
          "ELEMENT_SET_NO": 999,
          "REV_AT_EPOCH": 7735,
          "BSTAR": 0.00074906,
          "MEAN_MOTION_DOT": 0.06744984,
          "MEAN_MOTION_DDOT": 0.000012188,
          "SEMIMAJOR_AXIS": "6553.916",
          "PERIOD": "88.005",
          "APOAPSIS": "180.734",
          "PERIAPSIS": "170.828",
          "OBJECT_TYPE": "PAYLOAD",
          "RCS_SIZE": "SMALL",
          "COUNTRY_CODE": "SKOR",
          "LAUNCH_DATE": "1998-11-20",
          "SITE": "TTMTR",
          "DECAY_DATE": "2018-09-23",
          "FILE": "2335773",
          "GP_ID": "123366551",
          "TLE_LINE0": "0 LINK",
          "TLE_LINE1": "1 42714U 98067LV  18265.92001965 +.06744984 +12188-4 +74906-3 0  9997",
          "TLE_LINE2": "2 42714 051.6396 192.6696 0007557 179.7176 180.2695 16.36256502077350"
        }
      }
    }
  }
}